CCSDS_OMM_VERS,COMMENT,CREATION_DATE,ORIGINATOR,OBJECT_NAME,OBJECT_ID,CENTER_NAME,REF_FRAME,TIME_SYSTEM,MEAN_ELEMENT_THEORY,EPOCH,MEAN_MOTION,ECCENTRICITY,INCLINATION,RA_OF_ASC_NODE,ARG_OF_PERICENTER,MEAN_ANOMALY,EPHEMERIS_TYPE,CLASSIFICATION_TYPE,NORAD_CAT_ID,ELEMENT_SET_NO,REV_AT_EPOCH,BSTAR,MEAN_MOTION_DOT,MEAN_MOTION_DDOT,SEMIMAJOR_AXIS,PERIOD,APOAPSIS,PERIAPSIS,OBJECT_TYPE,RCS_SIZE,COUNTRY_CODE,LAUNCH_DATE,SITE,DECAY_DATE,FILE,GP_ID,TLE_LINE0,TLE_LINE1,TLE_LINE2
"2.0","GENERATED VIA SPACE-TRACK.ORG API","2020-12-04T04:46:55","18 SPCS","STARLINK-1694","2020-070N","EARTH","TEME","UTC","SGP4","2020-12-03T16:00:01.999584","15.62729231","0.00021090","52.9987","156.7020","60.2112","92.5834","0","U","46544","999","178","-0.00007098600000","-0.00007024","0.0000000000000","6757.914","92.146","381.204","378.354","PAYLOAD","","US","2020-10-06","AFETR","","2896992","166865154","0 STARLINK-1694","1 46544U 20070N   20338.66668981 -.00007024  00000-0 -70986-4 0  9997","2 46544  52.9987 156.7020 0002109  60.2112  92.5834 15.62729231  1785"
"2.0","GENERATED VIA SPACE-TRACK.ORG API","2020-12-04T06:16:09","18 SPCS","STARLINK-1694","2020-070N","EARTH","TEME","UTC","SGP4","2020-12-04T04:00:00.999936","15.62758484","0.00021310","52.9986","154.2537","57.3555","29.9280","0","U","46544","999","1001","-0.00008311900000","-0.00008141","0.0000000000000","6757.830","92.144","381.135","378.254","PAYLOAD","","US","2020-10-06","AFETR","","2897101","166868542","0 STARLINK-1694","1 46544U 20070N   20339.16667824 -.00008141  00000-0 -83119-4 0  9991","2 46544  52.9986 154.2537 0002131  57.3555  29.9280 15.62758484 10010"
"2.0","GENERATED VIA SPACE-TRACK.ORG API","2020-12-04T20:40:00","18 SPCS","STARLINK-1694","2020-070N","EARTH","TEME","UTC","SGP4","2020-12-04T06:00:02.000160","15.62746978","0.00020910","52.9988","153.8450","58.5696","137.8838","0","U","46544","999","177","0.00027999000000","0.00025177","0.0000000000000","6757.863","92.145","381.141","378.315","PAYLOAD","","US","2020-10-06","AFETR","","2897394","166897140","0 STARLINK-1694","1 46544U 20070N   20339.25002315  .00025177  00000-0  27999-3 0  9998","2 46544  52.9988 153.8450 0002091  58.5696 137.8838 15.62746978  1771"
"2.0","GENERATED VIA SPACE-TRACK.ORG API","2020-12-04T20:46:10","18 SPCS","STARLINK-1694","2020-070N","EARTH","TEME","UTC","SGP4","2020-12-04T20:05:08.999808","15.62795819","0.00021730","52.9986","150.9731","54.8125","205.3626","0","U","46544","999","1012","-0.00084022000000","-0.00076882","0.0000000000000","6757.722","92.142","381.055","378.118","PAYLOAD","","US","2020-10-06","AFETR","","2897422","166897747","0 STARLINK-1694","1 46544U 20070N   20339.83690972 -.00076882  00000-0 -84022-3 0  9995","2 46544  52.9986 150.9731 0002173  54.8125 205.3626 15.62795819 10129"
"2.0","GENERATED VIA SPACE-TRACK.ORG API","2020-12-05T05:28:40","18 SPCS","STARLINK-1694","2020-070N","EARTH","TEME","UTC","SGP4","2020-12-04T22:00:08.000064","15.62769072","0.00021320","52.9985","150.5823","53.3480","296.3341","0","U","46544","999","177","-0.00033474000000","-0.00031090","0.0000000000000","6757.799","92.144","381.105","378.223","PAYLOAD","","US","2020-10-06","AFETR","","2897577","166921254","0 STARLINK-1694","1 46544U 20070N   20339.91675926 -.00031090  00000-0 -33474-3 0  9993","2 46544  52.9985 150.5823 0002132  53.3480 296.3341 15.62769072  1776"
"2.0","GENERATED VIA SPACE-TRACK.ORG API","2020-12-05T06:36:10","18 SPCS","STARLINK-1694","2020-070N","EARTH","TEME","UTC","SGP4","2020-12-05T04:00:01.999584","15.62752403","0.00019380","52.9984","149.3569","54.2269","262.3704","0","U","46544","999","1017","-0.00007522400000","-0.00007417","0.0000000000000","6757.847","92.145","381.022","378.402","PAYLOAD","","US","2020-10-06","AFETR","","2897755","166947539","0 STARLINK-1694","1 46544U 20070N   20340.16668981 -.00007417  00000-0 -75224-4 0  9991","2 46544  52.9984 149.3569 0001938  54.2269 262.3704 15.62752403 10176"
"2.0","GENERATED VIA SPACE-TRACK.ORG API","2020-12-05T19:57:45","18 SPCS","STARLINK-1694","2020-070N","EARTH","TEME","UTC","SGP4","2020-12-05T06:00:02.000160","15.62745648","0.00018390","52.9986","148.9485","55.3094","10.3885","0","U","46544","999","177","0.00004699000000","0.00003768","0.0000000000000","6757.867","92.145","380.974","378.489","PAYLOAD","","US","2020-10-06","AFETR","","2897994","166973965","0 STARLINK-1694","1 46544U 20070N   20340.25002315 +.00003768 +00000-0 +46990-4 0  9995","2 46544 052.9986 148.9485 0001839 055.3094 010.3885 15.62745648001778"
"2.0","GENERATED VIA SPACE-TRACK.ORG API","2020-12-06T03:55:47","18 SPCS","STARLINK-1694","2020-070N","EARTH","TEME","UTC","SGP4","2020-12-05T22:00:00.999936","15.62696882","0.00018910","52.9990","145.6861","45.2281","173.1756","0","U","46544","999","177","0.00088688000000","0.00081312","0.0000000000000","6758.007","92.148","381.150","378.594","PAYLOAD","","US","2020-10-06","AFETR","","2898191","167022108","0 STARLINK-1694","1 46544U 20070N   20340.91667824  .00081312  00000-0  88688-3 0  9990","2 46544  52.9990 145.6861 0001891  45.2281 173.1756 15.62696882  1779"
"2.0","GENERATED VIA SPACE-TRACK.ORG API","2020-12-06T06:56:10","18 SPCS","STARLINK-1694","2020-070N","EARTH","TEME","UTC","SGP4","2020-12-06T06:00:02.000160","15.62735381","0.00017780","52.9993","144.0519","49.7243","245.1203","0","U","46544","999","1034","0.00054545000000","0.00049682","0.0000000000000","6757.896","92.146","380.963","378.560","PAYLOAD","","US","2020-10-06","AFETR","","2898362","167047558","0 STARLINK-1694","1 46544U 20070N   20341.25002315  .00049682  00000-0  54545-3 0  9995","2 46544  52.9993 144.0519 0001778  49.7243 245.1203 15.62735381 10344"
"2.0","GENERATED VIA SPACE-TRACK.ORG API","2020-12-06T20:04:35","18 SPCS","STARLINK-1694","2020-070N","EARTH","TEME","UTC","SGP4","2020-12-06T06:00:02.000160","15.62735381","0.00017780","52.9993","144.0519","49.7243","245.1203","0","U","46544","999","177","0.00054545000000","0.00049682","0.0000000000000","6757.896","92.146","380.963","378.560","PAYLOAD","","US","2020-10-06","AFETR","","2898587","167073652","0 STARLINK-1694","1 46544U 20070N   20341.25002315  .00049682  00000-0  54545-3 0  9995","2 46544  52.9993 144.0519 0001778  49.7243 245.1203 15.62735381  1771"
"2.0","GENERATED VIA SPACE-TRACK.ORG API","2020-12-06T14:46:10","18 SPCS","STARLINK-1694","2020-070N","EARTH","TEME","UTC","SGP4","2020-12-06T14:00:01.000224","15.62827954","0.00018720","52.9994","142.4202","48.0295","323.1583","0","U","46544","999","1039","-0.00006210600000","-0.00006235","0.0000000000000","6757.629","92.140","380.759","378.229","PAYLOAD","","US","2020-10-06","AFETR","","2898566","167052040","0 STARLINK-1694","1 46544U 20070N   20341.58334491 -.00006235  00000-0 -62106-4 0  9996","2 46544  52.9994 142.4202 0001872  48.0295 323.1583 15.62827954 10391"
"2.0","GENERATED VIA SPACE-TRACK.ORG API","2020-12-07T04:40:31","18 SPCS","STARLINK-1694","2020-070N","EARTH","TEME","UTC","SGP4","2020-12-06T22:00:03.999744","15.62774378","0.00019130","52.9989","140.7890","38.6190","49.2594","0","U","46544","999","177","0.00058862000000","0.00053766","0.0000000000000","6757.784","92.143","380.941","378.356","PAYLOAD","","US","2020-10-06","AFETR","","2898774","167120416","0 STARLINK-1694","1 46544U 20070N   20341.91671296  .00053766  00000-0  58862-3 0  9992","2 46544  52.9989 140.7890 0001913  38.6190  49.2594 15.62774378  1775"
"2.0","GENERATED VIA SPACE-TRACK.ORG API","2020-12-07T17:43:35","18 SPCS","STARLINK-1694","2020-070N","EARTH","TEME","UTC","SGP4","2020-12-07T06:00:02.000160","15.62877603","0.00015050","52.9992","139.1560","45.5070","118.6779","0","U","46544","999","177","-0.00185960000000","-0.00168154","0.0000000000000","6757.486","92.137","380.368","378.334","PAYLOAD","","US","2020-10-06","AFETR","","2899013","167168536","0 STARLINK-1694","1 46544U 20070N   20342.25002315 -.00168154  00000-0 -18596-2 0  9999","2 46544  52.9992 139.1560 0001505  45.5070 118.6779 15.62877603  1777"
"2.0","GENERATED VIA SPACE-TRACK.ORG API","2020-12-07T14:56:09","18 SPCS","STARLINK-1694","2020-070N","EARTH","TEME","UTC","SGP4","2020-12-07T14:00:01.000224","15.62445231","0.00016710","52.9973","137.5221","36.4502","204.2244","0","U","46544","999","1055","-0.00493550000000","-0.00424520","0.0000000000000","6758.733","92.163","381.727","379.468","PAYLOAD","","US","2020-10-06","AFETR","","2898979","167147026","0 STARLINK-1694","1 46544U 20070N   20342.58334491 -.00424520  00000-0 -49355-2 0  9997","2 46544  52.9973 137.5221 0001671  36.4502 204.2244 15.62445231 10558"
"2.0","GENERATED VIA SPACE-TRACK.ORG API","2020-12-07T22:46:09","18 SPCS","STARLINK-1694","2020-070N","EARTH","TEME","UTC","SGP4","2020-12-07T22:00:01.999584","15.62189859","0.00013020","52.9999","135.8956","29.6268","286.9924","0","U","46544","999","1060","-0.01122100000000","-0.00914500","0.0000000000000","6759.469","92.178","382.214","380.454","PAYLOAD","","US","2020-10-06","AFETR","","2899121","167192835","0 STARLINK-1694","1 46544U 20070N   20342.91668981 -.00914500  00000-0 -11221-1 0  9990","2 46544  52.9999 135.8956 0001302  29.6268 286.9924 15.62189859 10605"
"2.0","GENERATED VIA SPACE-TRACK.ORG API","2020-12-08T19:18:00","18 SPCS","STARLINK-1694","2020-070N","EARTH","TEME","UTC","SGP4","2020-12-08T06:00:00.999648","15.61525580","0.00013310","52.9989","134.2679","47.5918","344.3828","0","U","46544","999","177","-0.01288000000000","-0.01012094","0.0000000000000","6761.386","92.217","384.151","382.351","PAYLOAD","","US","2020-10-06","AFETR","","2899531","167223432","0 STARLINK-1694","1 46544U 20070N   20343.25001157 -.01012094 +00000-0 -12880-1 0  9994","2 46544 052.9989 134.2679 0001331 047.5918 344.3828 15.61525580001776"
